CAS-2T & KS-1Q          
1 41847U 16066G   21042.40892560  .00000065  00000-0  20827-4 0  9990
2 41847  98.6207 100.9073 0364577 236.4307 120.1577 14.38144404223761
NAYIF-1 (EO-88)         
1 42017U 17008BX  21042.15799182  .00001593  00000-0  61941-4 0  9994
2 42017  97.3321 111.9806 0005927 181.2836 178.8389 15.27480939221972
ZHUHAI-1 02 (CAS-4B)    
1 42759U 17034B   21042.56390372  .00000349  00000-0  34417-4 0  9995
2 42759  43.0169 153.1078 0008030  93.2488  23.5450 15.10067323202115
ZHUHAI-1 01 (CAS-4A)    
1 42761U 17034D   21042.56181188  .00000364  00000-0  35271-4 0  9997
2 42761  43.0170 152.2571 0008484  94.1349  22.9589 15.10148318202117
MAX VALIER SAT          
1 42778U 17036P   21042.38694040  .00000820  00000-0  37549-4 0  9990
2 42778  97.2739  95.0351 0010358 258.8050 101.2023 15.23201106202098
RADFXSAT (FOX-1B)       
1 43017U 17073E   21042.53316263  .00000839  00000-0  70247-4 0  9995
2 43017  97.7163 311.4661 0255664 351.4494   8.2401 14.79308265174507
FOX-1D (AO-92)          
1 43137U 18004AC  21042.15653777  .00001019  00000-0  43994-4 0  9995
2 43137  97.4204 117.4405 0007443 301.4843  58.5666 15.24791509171412
DIWATA-2B               
1 43678U 18084H   21042.61624218 -.00000301  00000-0 -24141-4 0  9990
2 43678  97.9058 167.3975 0011370 104.5361 255.7123 14.91702599124670
ES'HAIL 2               
1 43700U 18090A   21042.21438434  .00000127  00000-0  00000-0 0  9990
2 43700   0.0208 121.0658 0002051 242.5426 240.8926  1.00273100  8106
FOX-1CLIFF (AO-95)      
1 43770U 18099N   21042.44057001 -.00000114  00000-0 -51544-5 0  9990
2 43770  97.6800 115.3353 0015857 116.8587 243.4257 14.95192871119629
ITASAT 1                
1 43786U 18099AE  21042.45216116 -.00000076  00000-0 -17333-5 0  9997
2 43786  97.6816 115.9368 0016512 110.9236 249.3755 14.95502887119653
JY1SAT (JO-97)          
1 43803U 18099AX  21042.43564900 -.00000021  00000-0  32103-5 0  9993
2 43803  97.6780 115.6899 0016534 110.6818 249.6178 14.95724534119653
UWE-4                   
1 43880U 18111E   21042.23625659  .00000608  00000-0  58195-4 0  9998
2 43880  97.6956 312.0791 0012606 158.9753 201.1989 14.96724887116209
PSAT2 (NO-104)          
1 44354U 19036R   21042.27359614  .00008228  00000-0  11085-3 0  9993
2 44354  28.5279 245.9681 0341340 351.8020   7.7099 15.09382902 89866
BRICSAT2 (NO-103)       
1 44355U 19036S   21042.60964072  .00018851  00000-0  22863-3 0  9990
2 44355  28.5249 216.2530 0298291  40.1344 322.0888 15.20619717 90198
JAISAT-1                
1 44419U 19038F   21042.43355276  .00001053  00000-0  62457-4 0  9994
2 44419  97.5722   7.7647 0022123  30.6585 329.5933 15.13366285 88734
DUCHIFAT-3              
1 44854U 19089C   21042.53400540  .00000488  00000-0  45523-4 0  9995
2 44854  36.9669 125.1994 0007526 207.7569 152.2769 14.99324323 64195
RS-44 & BREEZE-KM R/B   
1 44909U 19096E   21042.51916121 -.00000004  00000-0 -62765-4 0  9992
2 44909  82.5219 196.4694 0217790  27.8163 333.4385 12.79708481 52730
ORBITAL FACTORY 2 (OF-2)
1 45113U 19071C   21042.38777370  .00001150  00000-0  44817-4 0  9998
2 45113  51.6427 288.3079 0012273 194.7022 165.3605 15.34758662 57801
HUSKYSAT-1              
1 45119U 19071J   21042.53467367  .00001777  00000-0  62870-4 0  9997
2 45119  51.6421 287.0375 0011655 191.7472 168.3240 15.34866971 57828
BY70-2                  
1 45857U 20042B   21042.48982242  .00000936  00000-0  14111-3 0  9994
2 45857  97.9948 119.5319 0009837 254.0934 105.9194 14.76678289 32956
SALSAT                  
1 46495U 20068K   21042.33497561 -.00000062  00000-0  11511-7 0  9996
2 46495  97.6838 340.6723 0018214 133.0451 227.2267 15.03343879 20383
BY70-3                  
1 46839U 20079N   21042.55929368  .00002353  00000-0  76711-4 0  9993
2 46839  97.2545 118.9160 0005776 305.6363 169.3951 15.32788730 14914
OSCAR 7 (AO-7)          
1 07530U 74089B   21042.49622479 -.00000050  00000-0 -26978-4 0  9998
2 07530 101.8380  17.2136 0011959 264.5287 210.9829 12.53647293115940
